C/2020 U3 (Rankin),e,30.1510,282.6696,124.3332,66.85606,0.0018030,0.96592897,1.7322,09/25.0/2023,2000,g 15.0,4.0
# From MPEC 2023-CD7
C/2020 U4 (PANSTARRS),h,04/09.3155/2022,167.0188,120.3489,70.0467,1.000399,5.358608,2000,7.0,4.0
# From MPEC 2023-O39
C/2020 U4 (PANSTARRS),h,04/09.3156/2022,167.0188,120.3489,70.0467,1.000399,5.358608,2000,7.0,4.0
# From MPEC 2023-R20
C/2020 U4 (PANSTARRS),h,04/09.3170/2022,167.0188,120.3490,70.0468,1.000395,5.358602,2000,7.0,4.0
# From MPEC 2023-N01
C/2020 U5 (PANSTARRS),e,97.2789,107.3224,75.4386,3658,0.0000045,0.99897303,0.0000,04/27.9730/2022,2000,g  8.0,4.0
# From MPEC 2023-MA9
C/2020 U5 (PANSTARRS),e,97.2789,107.3224,75.4386,3655,0.0000045,0.99897226,0.0000,04/27.9731/2022,2000,g  8.0,4.0
# From MPEC 2023-N16
C/2020 U5 (PANSTARRS),e,97.2789,107.3224,75.4386,3653,0.0000045,0.99897154,0.0000,04/27.9733/2022,2000,g  8.0,4.0
# From MPEC 2023-O39
C/2020 U5 (PANSTARRS),e,97.2789,107.3224,75.4387,3645,0.0000045,0.99896927,0.0000,04/27.9736/2022,2000,g  8.0,4.0
# From MPEC 2023-R20
C/2020 U5 (PANSTARRS),e,97.2790,107.3224,75.4388,3635,0.0000045,0.99896648,0.0000,04/27.9740/2022,2000,g  8.0,4.0
# From MPEC 2023-N16
C/2020 V2 (ZTF),h,05/08.4994/2023,131.6117,212.3711,162.4024,1.001103,2.227608,2000,4.9,4.0
# From MPEC 2023-N01
C/2020 V2 (ZTF),h,05/08.4994/2023,131.6117,212.3711,162.4025,1.001102,2.227608,2000,4.9,4.0
# From MPEC 2023-MA9
C/2020 V2 (ZTF),h,05/08.4994/2023,131.6117,212.3711,162.4025,1.001102,2.227608,2000,4.9,4.0
# From MPEC 2023-R20
C/2020 V2 (ZTF),h,05/08.4984/2023,131.6116,212.3709,162.4012,1.001116,2.227650,2000,4.9,4.0
# From MPEC 2023-O39
C/2020 V2 (ZTF),h,05/08.4994/2023,131.6117,212.3711,162.4024,1.001103,2.227608,2000,4.9,4.0
# From MPEC 2023-D72
P/2020 V3 (PANSTARRS),e,23.0331,198.2521,249.4289,8.389985,0.0405567,0.25726587,38.8013,09/25.0/2023,2000,g  8.3,4.0
# From MPEC 2023-KD6
P/2020 V4 (Rankin),e,14.2446,203.4820,257.0579,9.373937,0.0343416,0.45075243,27.4192,09/25.0/2023,2000,g  9.0,4.0
# From MPEC 2021-BE3
P/2020 W1 (Rankin),e,10.7851,124.2728,265.2396,7.217669,0.0508287,0.26633716,64.2256,09/25.0/2023,2000,g 10.0,4.0
# From MPEC 2021-BE3
P/2020 W1 (Rankin),e,10.7842,124.3952,265.1157,7.217588,0.0508295,0.26632985,64.2276,09/25.0/2023,2000,g 10.0,4.0
# From MPEC 2021-BE3
C/2020 W5 (Lemmon),h,11/30.1743/2020,88.6050,75.4582,24.5152,1.000929,3.366052,2000,15.0,4.0
# From MPEC 2021-BE3
C/2020 W5 (Lemmon),h,11/30.2904/2020,88.6032,75.4809,24.5016,1.001185,3.365316,2000,15.0,4.0
# From MPEC 2023-N01
P/2020 WJ5 (Lemmon),e,22.2923,177.8061,338.1070,6.015175,0.0668085,0.17143188,54.5647,09/25.0/2023,2000,g  8.5,4.0
# From MPEC 2023-P25
P/2020 WJ5 (Lemmon),e,22.2923,177.8062,338.1072,6.015177,0.0668085,0.17143190,54.5645,09/25.0/2023,2000,g  8.5,4.0
# From MPEC 2023-P65
P/2020 WJ5 (Lemmon),e,22.2923,177.8062,338.1072,6.015177,0.0668085,0.17143191,54.5645,09/25.0/2023,2000,g  8.5,4.0
# From MPEC 2023-R20
P/2020 WJ5 (Lemmon),e,22.2923,177.8062,338.1072,6.015177,0.0668085,0.17143191,54.5645,09/25.0/2023,2000,g  8.5,4.0
# From MPEC 2021-P47
P/2020 X1 (ATLAS),e,31.6941,55.9835,323.4737,4.531868,0.1021617,0.36535873,118.6134,09/25.0/2023,2000,g 13.0,4.0
# From MPEC 2021-P47
P/2020 X1 (ATLAS),e,31.6874,56.0466,323.4080,4.531756,0.1021655,0.36540520,118.6146,09/25.0/2023,2000,g 13.0,4.0
# From MPEC 2021-U31
C/2020 X2 (ATLAS),e,18.1847,105.4058,347.3969,16.46918,0.0147467,0.76762671,15.3768,09/25.0/2023,2000,g 10.6,4.0
# From MPEC 2021-U31
C/2020 X2 (ATLAS),e,18.1838,105.4282,347.3746,16.46973,0.0147460,0.76763762,15.3760,09/25.0/2023,2000,g 10.6,4.0
# From MPEC 2023-R20
C/2020 X2 (ATLAS),e,18.1847,105.4058,347.3966,16.46920,0.0147467,0.76762700,15.3768,09/25.0/2023,2000,g 10.6,4.0
# From MPEC 2021-S45
C/2020 X4 (Leonard),e,80.6115,161.8864,140.3140,40.60037,0.0038099,0.87134596,3.9745,09/25.0/2023,2000,g  9.0,4.0
# From MPEC 2021-S45
C/2020 X4 (Leonard),e,80.6201,161.9035,140.3156,40.82596,0.0037783,0.87206020,3.9404,09/25.0/2023,2000,g  9.0,4.0
# From MPEC 2023-N16
C/2020 Y2 (ATLAS),e,101.2751,26.5206,266.3417,4229,0.0000036,0.99925766,0.0000,06/18.5461/2022,2000,g  6.5,4.0
# From MPEC 2023-N01
C/2020 Y2 (ATLAS),e,101.2751,26.5206,266.3417,4224,0.0000036,0.99925669,0.0000,06/18.5462/2022,2000,g  6.5,4.0
# From MPEC 2023-MA9
C/2020 Y2 (ATLAS),e,101.2751,26.5206,266.3418,4222,0.0000036,0.99925630,0.0000,06/18.5463/2022,2000,g  6.5,4.0
# From MPEC 2023-R20
C/2020 Y2 (ATLAS),e,101.2751,26.5206,266.3416,4278,0.0000035,0.99926606,0.0000,06/18.5453/2022,2000,g  6.5,4.0
# From MPEC 2023-O39
C/2020 Y2 (ATLAS),e,101.2751,26.5206,266.3417,4233,0.0000036,0.99925832,0.0000,06/18.5461/2022,2000,g  6.5,4.0
# From MPEC 2021-R75
C/2020 Y3 (ATLAS),e,83.1026,191.4364,341.9253,141.1808,0.0005875,0.98586936,0.0000,12/03.2866/2020,2000,g 13.5,4.0
# From MPEC 2021-R75
C/2020 Y3 (ATLAS),e,83.1076,191.4169,341.9541,140.5518,0.0005915,0.98579856,0.0000,12/03.1852/2020,2000,g 13.5,4.0
# From MPEC 2023-CD7
C/2021 A1 (Leonard),h,01/03.2970/2022,132.7280,255.9028,225.1270,1.000052,0.616016,2000,8.5,4.0
# From MPEC 2022-F14
C/2021 A2 (NEOWISE),e,106.9964,125.1749,338.7714,230.3314,0.0002820,0.99386954,0.0000,01/22.3470/2021,2000,g 13.5,4.0
# From MPEC 2022-F14
C/2021 A2 (NEOWISE),e,6.9765,125.1619,338.8089,240.1047,0.0002649,0.99412780,0.0000,01/22.7579/2021,2000,g 13.5,4.0
# From MPEC 2022-ED3
C/2021 A4 (NEOWISE),e,111.5451,307.1092,204.7129,42.39824,0.0035701,0.97292709,0.0000,03/19.6522/2021,2000,g 16.0,4.0
# From MPEC 2022-ED3
C/2021 A4 (NEOWISE),e,11.5425,307.0767,204.6947,42.49657,0.0035577,0.97307211,0.0000,03/20.0187/2021,2000,g 16.0,4.0
# From MPEC 2021-BE3
P/2021 A5 (PANSTARRS),e,18.1824,328.7545,61.3929,3.047573,0.1852563,0.13995200,193.7726,09/25.0/2023,2000,g 15.0,4.0
# From MPEC 2021-BE3
P/2021 A5 (PANSTARRS),e,18.1859,328.8354,61.3150,3.047620,0.1852520,0.13993540,193.7685,09/25.0/2023,2000,g 15.0,4.0
# From MPEC 2023-M14
C/2021 A6 (PANSTARRS),e,75.5973,164.0701,351.6217,8743,0.0000012,0.99909348,0.0000,05/03.0576/2021,2000,g 11.5,4.0
# From MPEC 2023-O39
C/2021 A6 (PANSTARRS),e,75.5973,164.0701,351.6218,8727,0.0000012,0.99909183,0.0000,05/03.0577/2021,2000,g  7.0,4.0
# From MPEC 2022-M88
C/2021 A7 (NEOWISE),e,78.1585,154.4920,355.9950,2024,0.0000108,0.99902903,0.0000,07/15.1577/2021,2000,g 10.0,4.0
# From MPEC 2022-M88
C/2021 A7 (NEOWISE),e,78.1560,154.4736,356.0117,2098,0.0000103,0.99906318,0.0000,07/15.1800/2021,2000,g 10.0,4.0
# From MPEC 2023-KD6
C/2021 A9 (PANSTARRS),h,12/01.7889/2023,158.0153,314.8376,211.4672,1.001556,7.760023,2000,6.0,4.0
# From MPEC 2021-N06
C/2021 A10 (NEOWISE),e,151.9478,188.7188,82.3999,87.35306,0.0012072,0.98554428,0.0000,03/14.9506/2021,2000,g 19.0,4.0
# From MPEC 2021-N06
C/2021 A10 (NEOWISE),e,51.8943,188.6462,82.3943,88.76213,0.0011786,0.98577931,0.0000,03/15.0647/2021,2000,g 19.0,4.0
# From MPEC 2022-L66
C/2021 B2 (PANSTARRS),e,38.0843,120.5052,334.9929,368.3014,0.0001394,0.99318056,0.0000,05/04.4544/2021,2000,g 14.0,4.0
# From MPEC 2022-L66
C/2021 B2 (PANSTARRS),e,38.0819,120.5216,334.9770,369.3430,0.0001389,0.99320011,0.0000,05/04.4638/2021,2000,g 14.0,4.0
# From MPEC 2021-N06
C/2021 B3 (NEOWISE),e,119.4780,67.2801,293.5316,34.37061,0.0048913,0.93711721,4.5423,09/25.0/2023,2000,g 13.5,4.0
# From MPEC 2021-N06
C/2021 B3 (NEOWISE),e,19.4604,67.2554,293.5979,34.74316,0.0048128,0.93778627,4.4675,09/25.0/2023,2000,g 13.5,4.0
# From MPEC 2023-KD6
C/2021 C1 (Rankin),e,143.0444,186.8927,336.2027,5467,0.0000024,0.99936417,0.0000,12/06.8167/2020,2000,g 11.5,4.0
# From MPEC 2021-U31
P/2021 C2 (PANSTARRS),e,21.9382,66.4577,78.7052,9.534705,0.0334767,0.48751103,31.5842,09/25.0/2023,2000,g 12.0,4.0
# From MPEC 2021-U31
P/2021 C2 (PANSTARRS),e,21.9378,66.4432,78.7197,9.534607,0.0334773,0.48750467,31.5847,09/25.0/2023,2000,g 12.0,4.0
# From MPEC 2021-N06
C/2021 C3 (Catalina),e,122.1668,181.9210,357.0520,61.54589,0.0020413,0.96305515,1.9494,09/25.0/2023,2000,g 14.0,4.0
# From MPEC 2021-N06
C/2021 C3 (Catalina),e,22.1669,181.8932,357.0890,61.72700,0.0020323,0.96316825,1.9406,09/25.0/2023,2000,g 14.0,4.0
# From MPEC 2022-M88
C/2021 C4 (ATLAS),e,132.8524,194.2759,320.1706,44323,0.0000001,0.99989847,0.0000,01/16.9578/2021,2000,g  9.0,4.0
# From MPEC 2022-M88
C/2021 C4 (ATLAS),e,32.8517,194.2626,320.1937,7266,0.0000016,0.99938038,0.0000,01/16.8744/2021,2000,g  9.0,4.0
# From MPEC 2023-N16
C/2021 C5 (PANSTARRS),e,50.7835,323.6779,270.9225,2047,0.0000106,0.99841628,0.0000,02/11.0560/2023,2000,g  9.0,4.0
# From MPEC 2023-N01
C/2021 C5 (PANSTARRS),e,50.7835,323.6779,270.9226,2046,0.0000107,0.99841530,0.0000,02/11.0561/2023,2000,g  9.0,4.0
# From MPEC 2023-M14
C/2021 C5 (PANSTARRS),e,50.7835,323.6779,270.9228,2041,0.0000107,0.99841163,0.0000,02/11.0568/2023,2000,g 12.0,4.0
# From MPEC 2023-R20
C/2021 C5 (PANSTARRS),e,50.7835,323.6779,270.9224,2049,0.0000106,0.99841770,0.0000,02/11.0556/2023,2000,g  9.0,4.0
# From MPEC 2022-YB4
C/2021 C6 (Lemmon),h,11/13.1791/2021,64.6290,332.1494,203.5637,1.000811,3.271494,2000,12.0,4.0
# From MPEC 2022-YB4
C/2021 C6 (Lemmon),h,11/13.1040/2021,164.6130,332.2856,203.7849,1.000464,3.277584,2000,12.0,4.0
# From MPEC 2022-F14
C/2021 D1 (SWAN),e,31.4123,311.2147,72.3239,100.8903,0.0009726,0.99105076,0.0000,02/27.7805/2021,2000,g 13.0,4.0
# From MPEC 2022-F14
C/2021 D1 (SWAN),e,31.4281,311.2822,72.2573,100.8665,0.0009729,0.99104719,0.0000,02/27.7654/2021,2000,g 13.0,4.0
# From MPEC 2023-J29
C/2021 D2 (ZTF),h,02/03.9698/2022,83.8068,305.6722,125.0263,1.001668,2.946232,2000,9.0,4.0
# From MPEC 2022-UY9
A/2021 E2,e,167.4885,190.8154,342.3542,220.2915,0.0003014,0.98963316,0.0000,12/10.2746/2020,2000,g 15.0,2.0
# From MPEC 2022-UY9
A/2021 E2,e,67.4883,190.8284,342.4039,217.0411,0.0003082,0.98946622,0.0000,12/10.0909/2020,2000,g 15.0,2.0
# From MPEC 2023-J29
C/2021 E3 (ZTF),h,06/11.8774/2022,112.5427,104.4798,228.8453,1.000765,1.777257,2000,8.5,4.0
# From MPEC 2023-M14
A/2021 E4,e,116.3613,171.1683,48.2617,563.5539,0.0000737,0.99170227,0.0000,04/25.1149/2022,2000,g 13.5,22.0
# From MPEC 2023-R20
